NORAD_CAT_ID,OBJECT_NAME,OBJECT_TYPE,EPOCH,MEAN_MOTION,ECCENTRICITY,INCLINATION,RA_OF_ASC_NODE,ARG_OF_PERICENTER,MEAN_ANOMALY,BSTAR,MEAN_MOTION_DOT,MEAN_MOTION_DDOT,TLE_LINE0,TLE_LINE1,TLE_LINE2,SEMIMAJOR_AXIS,PERIOD,APOGEE,PERIGEE,DECAYED
53565.0,STARLINK-4575,PAYLOAD,2024-02-15 03:31:39,15.08840556,0.000165,53.2157,197.0593,84.9695,275.1485,0.00012701,1.734e-05,0.0,0 STARLINK-4575,1 53565U 22101AQ  24046.14698696  .00001734  00000-0  12701-3 0  9994,2 53565  53.2157 197.0593 0001650  84.9695 275.1485 15.08840556 82684,6917.879,95.438,540.885,538.602,0.0
53565.0,STARLINK-4575,PAYLOAD,2024-02-15 14:39:22,15.08836048,0.0001592,53.216,194.9806,85.3589,274.7585,-8.7215e-06,-4.27e-06,0.0,0 STARLINK-4575,1 53565U 22101AQ  24046.61067147 -.00000427  00000-0 -87215-5 0  9991,2 53565  53.2160 194.9806 0001592  85.3589 274.7585 15.08836048 83412,6917.892,95.438,540.859,538.656,0.0
53565.0,STARLINK-4575,PAYLOAD,2024-02-15 16:14:45,15.08834922,0.0001538,53.217,194.6839,83.2765,276.8402,-2.7443e-05,-7.25e-06,0.0,0 STARLINK-4575,1 53565U 22101AQ  24046.67691231 -.00000725  00000-0 -27443-4 0  9991,2 53565  53.2170 194.6839 0001538  83.2765 276.8402 15.08834922 82766,6917.896,95.438,540.825,538.697,0.0
53565.0,STARLINK-4575,PAYLOAD,2024-02-16 09:43:59,15.08845235,0.0001339,53.2158,191.4124,83.2506,276.8638,7.3337e-05,8.8e-06,0.0,0 STARLINK-4575,1 53565U 22101AQ  24047.40554676  .00000880  00000-0  73337-4 0  9997,2 53565  53.2158 191.4124 0001339  83.2506 276.8638 15.08845235 82878,6917.864,95.437,540.656,538.803,0.0
53565.0,STARLINK-4575,PAYLOAD,2024-02-16 14:30:08,15.08849574,0.0001498,53.2162,190.5199,86.7903,273.326,0.00011866,1.601e-05,0.0,0 STARLINK-4575,1 53565U 22101AQ  24047.60426434  .00001601  00000-0  11866-3 0  9999,2 53565  53.2162 190.5199 0001498  86.7903 273.3260 15.08849574 83560,6917.851,95.437,540.752,538.68,0.0
53565.0,STARLINK-4575,PAYLOAD,2024-02-16 19:16:17,15.08855965,0.0001353,53.2169,189.627,89.6942,270.4206,0.0001685,2.396e-05,0.0,0 STARLINK-4575,1 53565U 22101AQ  24047.80297977  .00002396  00000-0  16850-3 0  9999,2 53565  53.2169 189.6270 0001353  89.6942 270.4206 15.08855965 82930,6917.832,95.437,540.633,538.761,0.0
53565.0,STARLINK-4575,PAYLOAD,2024-02-17 09:34:46,15.08831687,0.000106,53.2163,186.9519,61.3403,298.7695,0.00011502,1.543e-05,0.0,0 STARLINK-4575,1 53565U 22101AQ  24048.39915480  .00001543  00000-0  11502-3 0  9992,2 53565  53.2163 186.9519 0001060  61.3403 298.7695 15.08831687 83025,6917.906,95.438,540.504,539.038,0.0
53565.0,STARLINK-4575,PAYLOAD,2024-02-17 14:20:56,15.08837953,0.0001341,53.2161,186.0585,96.8857,263.2287,9.2611e-05,1.186e-05,0.0,0 STARLINK-4575,1 53565U 22101AQ  24048.59787119  .00001186  00000-0  92611-4 0  9994,2 53565  53.2161 186.0585 0001341  96.8857 263.2287 15.08837953 83717,6917.887,95.438,540.679,538.824,0.0
53565.0,STARLINK-4575,PAYLOAD,2024-02-17 15:56:19,15.08838883,0.0001176,53.2162,185.7624,84.7199,275.3927,0.00018656,2.682e-05,0.0,0 STARLINK-4575,1 53565U 22101AQ  24048.66411198  .00002682  00000-0  18656-3 0  9991,2 53565  53.2162 185.7624 0001176  84.7199 275.3927 15.08838883 83728,6917.884,95.438,540.562,538.935,0.0
53565.0,STARLINK-4575,PAYLOAD,2024-02-18 01:28:37,15.08841673,0.000115,53.216,183.9783,82.3125,277.7998,0.00013766,1.904e-05,0.0,0 STARLINK-4575,1 53565U 22101AQ  24049.06155050  .00001904  00000-0  13766-3 0  9991,2 53565  53.2160 183.9783 0001150  82.3125 277.7998 15.08841673 83126,6917.875,95.437,540.536,538.945,0.0
53565.0,STARLINK-4575,PAYLOAD,2024-02-18 14:11:43,15.08832611,0.0001485,53.2179,181.6023,89.4846,270.6316,-4.5835e-05,-1.017e-05,0.0,0 STARLINK-4575,1 53565U 22101AQ  24049.59147720 -.00001017  00000-0 -45835-4 0  9994,2 53565  53.2179 181.6023 0001485  89.4846 270.6316 15.08832611 83866,6917.903,95.438,540.795,538.741,0.0
53565.0,STARLINK-4575,PAYLOAD,2024-02-18 15:47:06,15.08835627,0.000138,53.2155,181.3046,89.7739,270.3411,5.5413e-05,5.94e-06,0.0,0 STARLINK-4575,1 53565U 22101AQ  24049.65771580  .00000594  00000-0  55413-4 0  9998,2 53565  53.2155 181.3046 0001380  89.7739 270.3411 15.08835627 83212,6917.894,95.438,540.713,538.804,0.0
53565.0,STARLINK-4575,PAYLOAD,2024-02-19 14:02:30,15.08837517,0.0001292,53.2148,177.1392,90.3256,269.7885,0.00016946,2.41e-05,0.0,0 STARLINK-4575,1 53565U 22101AQ  24050.58507861  .00002410  00000-0  16946-3 0  9997,2 53565  53.2148 177.1392 0001292  90.3256 269.7885 15.08837517 84011,6917.888,95.438,540.647,538.859,0.0
53565.0,STARLINK-4575,PAYLOAD,2024-02-19 15:37:53,15.08840427,0.0001299,53.2152,176.8431,95.5649,264.5491,0.00021819,3.186e-05,0.0,0 STARLINK-4575,1 53565U 22101AQ  24050.65131749  .00003186  00000-0  21819-3 0  9999,2 53565  53.2152 176.8431 0001299  95.5649 264.5491 15.08840427 84027,6917.879,95.438,540.643,538.845,0.0
53565.0,STARLINK-4575,PAYLOAD,2024-02-20 01:10:12,15.08842797,0.0001303,53.2162,175.0584,86.5623,273.5518,0.00019063,2.748e-05,0.0,0 STARLINK-4575,1 53565U 22101AQ  24051.04875623  .00002748  00000-0  19063-3 0  9990,2 53565  53.2162 175.0584 0001303  86.5623 273.5518 15.08842797 83421,6917.872,95.437,540.638,538.835,0.0
53565.0,STARLINK-4575,PAYLOAD,2024-02-20 12:17:55,15.08833702,0.0001526,53.2178,172.9783,87.2609,272.8557,1.57e-05,-3.8e-07,0.0,0 STARLINK-4575,1 53565U 22101AQ  24051.51244246 -.00000038  00000-0  15700-4 0  9999,2 53565  53.2178 172.9783 0001526  87.2609 272.8557 15.08833702 83492,6917.9,95.438,540.82,538.709,0.0
53565.0,STARLINK-4575,PAYLOAD,2024-02-20 13:53:18,15.08834638,0.0001561,53.2185,172.6808,91.1673,268.9498,8.4388e-05,1.055e-05,0.0,0 STARLINK-4575,1 53565U 22101AQ  24051.57868278  .00001055  00000-0  84388-4 0  9999,2 53565  53.2185 172.6808 0001561  91.1673 268.9498 15.08834638 84163,6917.897,95.438,540.842,538.682,0.0
53565.0,STARLINK-4575,PAYLOAD,2024-02-20 15:28:41,15.08837938,0.0001607,53.2159,172.3811,79.527,280.5903,6.7491e-05,7.86e-06,0.0,0 STARLINK-4575,1 53565U 22101AQ  24051.64492122  .00000786  00000-0  67491-4 0  9994,2 53565  53.2159 172.3811 0001607  79.5270 280.5903 15.08837938 84177,6917.887,95.438,540.863,538.64,0.0
53565.0,STARLINK-4575,PAYLOAD,2024-02-21 12:08:41,15.08845342,0.0001488,53.2173,168.5182,86.785,273.3313,0.00015109,2.118e-05,0.0,0 STARLINK-4575,1 53565U 22101AQ  24052.50603780  .00002118  00000-0  15109-3 0  9993,2 53565  53.2173 168.5182 0001488  86.7850 273.3313 15.08845342 83646,6917.864,95.437,540.758,538.7,0.0
53565.0,STARLINK-4575,PAYLOAD,2024-02-21 13:44:04,15.08848284,0.0001511,53.2163,168.2208,98.593,261.5233,0.00014338,1.995e-05,0.0,0 STARLINK-4575,1 53565U 22101AQ  24052.57227570  .00001995  00000-0  14338-3 0  9994,2 53565  53.2163 168.2208 0001511  98.5930 261.5233 15.08848284 84311,6917.855,95.437,540.765,538.675,0.0
53565.0,STARLINK-4575,PAYLOAD,2024-02-21 15:19:27,15.08851512,0.0001459,53.2164,167.923,95.1612,264.9547,0.00016178,2.288e-05,0.0,0 STARLINK-4575,1 53565U 22101AQ  24052.63851407  .00002288  00000-0  16178-3 0  9993,2 53565  53.2164 167.9230 0001459  95.1612 264.9547 15.08851512 84328,6917.845,95.437,540.72,538.701,0.0
53565.0,STARLINK-4575,PAYLOAD,2024-02-22 11:59:28,15.08843217,0.0001604,53.218,164.0576,78.9379,281.1793,0.00015432,2.169e-05,0.0,0 STARLINK-4575,1 53565U 22101AQ  24053.49963961  .00002169  00000-0  15432-3 0  9997,2 53565  53.2180 164.0576 0001604  78.9379 281.1793 15.08843217 83795,6917.871,95.437,540.845,538.626,0.0
53565.0,STARLINK-4575,PAYLOAD,2024-02-22 13:34:51,15.08846601,0.0001491,53.2167,163.7593,80.7289,279.3872,0.00014267,1.984e-05,0.0,0 STARLINK-4575,1 53565U 22101AQ  24053.56587697  .00001984  00000-0  14267-3 0  9992,2 53565  53.2167 163.7593 0001491  80.7289 279.3872 15.08846601 84462,6917.86,95.437,540.757,538.694,0.0
53565.0,STARLINK-4575,PAYLOAD,2024-02-23 13:25:38,15.0885264,0.0001395,53.2161,159.2979,91.9713,268.1439,0.00012234,1.66e-05,0.0,0 STARLINK-4575,1 53565U 22101AQ  24054.55947165  .00001660  00000-0  12234-3 0  9995,2 53565  53.2161 159.2979 0001395  91.9713 268.1439 15.08852640 84615,6917.842,95.437,540.672,538.742,0.0
53565.0,STARLINK-4575,PAYLOAD,2024-02-24 10:05:39,15.08838213,0.0001627,53.2168,155.4324,102.0112,258.1062,4.2315e-05,3.85e-06,0.0,0 STARLINK-4575,1 53565U 22101AQ  24055.42059889  .00000385  00000-0  42315-4 0  9996,2 53565  53.2168 155.4324 0001627 102.0112 258.1062 15.08838213 84081,6917.886,95.438,540.876,538.625,0.0
53565.0,STARLINK-4575,PAYLOAD,2024-02-24 13:16:25,15.08840596,0.0001396,53.2162,154.8383,89.2592,270.856,8.2449e-05,1.025e-05,0.0,0 STARLINK-4575,1 53565U 22101AQ  24055.55307854  .00001025  00000-0  82449-4 0  9992,2 53565  53.2162 154.8383 0001396  89.2592 270.8560 15.08840596 84760,6917.879,95.438,540.709,538.778,0.0
53565.0,STARLINK-4575,PAYLOAD,2024-02-24 16:27:12,15.08844167,0.0001316,53.2154,154.2401,94.2033,265.9109,0.00013327,1.834e-05,0.0,0 STARLINK-4575,1 53565U 22101AQ  24055.68555689  .00001834  00000-0  13327-3 0  9993,2 53565  53.2154 154.2401 0001316  94.2033 265.9109 15.08844167 84788,6917.868,95.437,540.643,538.822,0.0
53565.0,STARLINK-4575,PAYLOAD,2024-02-25 11:31:49,15.08842073,0.0001346,53.2164,150.6739,71.4145,288.6993,8.4826e-05,1.062e-05,0.0,0 STARLINK-4575,1 53565U 22101AQ  24056.48043886  .00001062  00000-0  84826-4 0  9999,2 53565  53.2164 150.6739 0001346  71.4145 288.6993 15.08842073 84245,6917.874,95.437,540.67,538.808,0.0
53565.0,STARLINK-4575,PAYLOAD,2024-02-25 13:07:12,15.08847989,0.0001298,53.2157,150.3768,87.8458,272.2683,0.00017917,2.565e-05,0.0,0 STARLINK-4575,1 53565U 22101AQ  24056.54667547  .00002565  00000-0  17917-3 0  9997,2 53565  53.2157 150.3768 0001298  87.8458 272.2683 15.08847989 84910,6917.856,95.437,540.619,538.823,0.0
53565.0,STARLINK-4575,PAYLOAD,2024-02-25 19:28:45,15.08853635,0.0001285,53.2155,149.1867,85.4779,274.636,0.00026106,3.871e-05,0.0,0 STARLINK-4575,1 53565U 22101AQ  24056.81163245  .00003871  00000-0  26106-3 0  9994,2 53565  53.2155 149.1867 0001285  85.4779 274.6360 15.08853635 84294,6917.839,95.437,540.593,538.815,0.0
